#aV2007  6 14  0  0   .00000000      96 DD+AD WGS84 FIT  NGA
## 1431 345600.00000000   900.00000000 54265  .0000000000000
+   30     1  2  3  4  5  6  7  8  9 10 11 12 13 14 16 17 18
+         19 20 21 22 23 24 25 26 27 28 29 30 31  0  0  0  0
+          0  0  0  0  0  0  0  0  0  0  0  0  0  0  0  0  0
+          0  0  0  0  0  0  0  0  0  0  0  0  0  0  0  0  0
+          0  0  0  0  0  0  0  0  0  0  0  0  0  0  0  0  0
++         0  0  0  0  0  0  0  0  0  0  0  0  0  0  0  0  0
++         0  0  0  0  0  0  0  0  0  0  0  0  0  0  0  0  0
++         0  0  0  0  0  0  0  0  0  0  0  0  0  0  0  0  0
++         0  0  0  0  0  0  0  0  0  0  0  0  0  0  0  0  0
++         0  0  0  0  0  0  0  0  0  0  0  0  0  0  0  0  0
%c cc cc ccc ccc cccc cccc cccc cccc ccccc ccccc ccccc ccccc
%c cc cc ccc ccc cccc cccc cccc cccc ccccc ccccc ccccc ccccc
%f  0.0000000  0.000000000  0.00000000000  0.000000000000000
%f  0.0000000  0.000000000  0.00000000000  0.000000000000000
%i    0    0    0    0      0      0      0      0         0
%i    0    0    0    0      0      0      0      0         0
/*      NGA, ST. LOUIS,MO.                                  
/*   EPHEMERIS COMPUTED FROM  3 DAYS OF DATA                
/* CCCCCCCCCCCCCCCCCCCCCCCCCCCCCCCCCCCCCCCCCCCCCCCCCCCCCCCCC
/* CCCCCCCCCCCCCCCCCCCCCCCCCCCCCCCCCCCCCCCCCCCCCCCCCCCCCCCCC
*  2007  6 14  5 15   .00000000                                                 
P  1  21439.679980  15252.189110   4064.988014    134.027324                    
V  1  -5119.690198   -866.714176  31806.431152       .021352                    
P  2 -13427.225839 -15454.513129 -17281.550107    114.057189                    
V  2    416.284375 -21540.193296  18882.721779       .028350                    
P  3  24763.806651  10094.018252   -651.556314     71.990228                    
V  3  -1849.312447   3179.528416 -30720.421407       .053987                    
P  4  -7277.574006 -23848.897942  -8676.206002      9.714639                    
V  4   2809.078170 -11187.000283  28961.837540      -.008397                    
P  5 -21323.092635  15624.688554   1244.712340     49.191993                    
V  5   -764.323026  -4002.546019  31332.334036       .521939                    
P  6 -11423.875899  11682.124928 -20754.802668    213.540932                    
V  6 -24120.347718 -11922.072717   6463.938399       .099478                    
P  7  -7530.800647  13734.514537 -21104.042416    256.431104                    
V  7 -25402.329133 -11090.332079   1756.311816      -.187227                    
P  8    649.326702 -26280.793554  -1329.167880   -110.999231                    
V  8   2630.263617   1543.340433 -32386.992639      -.014237                    
P  9 -14122.675503   5688.600660  21141.990929     74.441288                    
V  9  -3253.571822 -28100.427961   5455.051473       .015480                    
P 10 -18327.354411  -4016.327856 -19039.498530    103.306771                    
V 10  19648.026070 -13474.698610 -15858.322642       .005439                    
P 11  14748.462836  -8477.481985  20249.947399     18.337990                    
V 11   6939.675792  25400.569837   5844.750076       .008523                    
P 12 -23570.115678  10919.983819   5477.972076    -46.778603                    
V 12   4201.108711  -6046.988042  30792.324792      -.009076                    
P 13   9500.333279 -11248.651447 -22207.835520    181.298577                    
V 13  24295.931939  13621.472586   3546.826197       .033135                    
P 14  10338.539762  17973.284330  16725.999040     24.854504                    
V 14 -19103.673779  -8789.017838  21275.772875       .018241                    
P 16  13516.086724   8754.739689 -21063.478194    155.426781                    
V 16 -22372.973413  14955.420473  -7956.109885       .027952                    
P 17  -7952.894049 -18112.779226  17802.623603     64.720762                    
V 17  20760.067003   8887.036984  18203.562645      -.013363                    
P 18 -13238.129183  18800.112056  13128.202874   -247.415211                    
V 18 -15598.806540   6255.330040 -25291.110319       .010379                    
P 19  23916.192330   5638.049747  10339.158790     42.581479                    
V 19   9901.183676   8698.061604 -27804.237065       .031517                    
P 20  23139.018035 -12449.215163   3657.915871    -25.625201                    
V 20  -2248.201051   5227.623516  31134.458328      -.004242                    
P 21  -6197.637813  23733.917347  -9279.998782     77.909339                    
V 21  -3936.900690 -12087.457562 -28493.653292       .003061                    
P 22  -1332.729484  17458.452994  20114.292769    186.543353                    
V 22 -22350.296940  11807.042243 -11854.149058       .015865                    
P 23  19021.425436  -4339.384420 -18201.256572    173.658590                    
V 23  19805.481897  11443.232200  17848.805312       .029099                    
P 24 -12583.992801  14930.838758 -17929.992094      7.340595                    
V 24  -1659.080014 -23078.668152 -17566.899518       .029126                    
P 25   8340.687239 -19328.775776 -15920.302623    314.820298                    
V 25   5043.808699  20310.912321 -21373.848372       .215822                    
P 26 -24458.451768  -8458.377244   6729.657410   -249.305486                    
V 26  -7216.710536  -5520.775569 -30560.774528      -.214630                    
P 27   3942.410399 -24018.189188  -9701.421238    116.494464                    
V 27   4297.157848  12910.974728 -28582.559517       .022354                    
P 28   4841.383913 -18401.263512  18725.009304      -.953291                    
V 28  20522.220881 -10938.432756 -16691.884648      -.008729                    
P 29 -24607.906967 -10112.179477   3144.712319      3.716721                    
V 29  -2580.830226  -3068.164148 -31789.687171       .002777                    
P 30 -18904.942709  17941.334081  -5105.021944     36.578537                    
V 30  -6875.444841    904.323075  30607.595871       .010447                    
P 31   8132.222855  23246.145558  -9656.235394     17.975657                    
V 31  -1803.230710  12694.367464  28537.741000      -.007091                    
EOF
